{"type": "FeatureCollection", "features": [ {"type": "Feature", "properties": {"norad_id": 31633, "name": "FENGYUN 1C DEB", "group": "fengyun-1c-debris", "lat": 2.207996169679702, "lon": -9.431404295200833, "alt_km": 918.9821797524273, "timestamp": "2025-12-02T07:10:09.398773+00:00", "meta": {"OBJECT_NAME": "FENGYUN 1C DEB", "OBJECT_ID": "1999-025CAP", "EPOCH": "2025-11-15T20:43:47.485920", "MEAN_MOTION": 14.06334417, "ECCENTRICITY": 0.00656916, "INCLINATION": 98.7152, "RA_OF_ASC_NODE": 335.0833, "ARG_OF_PERICENTER": 248.7649, "MEAN_ANOMALY": 110.6494, "EPHEMERIS_TYPE": 0, "CLASSIFICATION_TYPE": "U", "NORAD_CAT_ID": 31633, "ELEMENT_SET_NO": 999, "REV_AT_EPOCH": 56706, "BSTAR": 0.0011592605, "MEAN_MOTION_DOT": 1.907e-05, "MEAN_MOTION_DDOT": 0}, "tle": {"line1": "1 31633U 99025CAP 25319.86374405  .00001907  00000+0  11593-2 0  9995", "line2": "2 31633  98.7152 335.0833 0065691 248.7649 110.6494 14.06334417567064"}}, "geometry": {"type": "Point", "coordinates": [-9.431404295200833, 2.207996169679702]}}, {"type": "Feature", "properties": {"norad_id": 31634, "name": "FENGYUN 1C DEB", "group": "fengyun-1c-debris", "lat": -23.606283981308895, "lon": 26.77730596994231, "alt_km": 975.4637803786, "timestamp": "2025-12-02T07:10:09.398786+00:00", "meta": {"OBJECT_NAME": "FENGYUN 1C DEB", "OBJECT_ID": "1999-025CAQ", "EPOCH": "2025-11-23T21:50:05.398944", "MEAN_MOTION": 13.94646713, "ECCENTRICITY": 0.00913739, "INCLINATION": 99.369, "RA_OF_ASC_NODE": 14.1287, "ARG_OF_PERICENTER": 208.5228, "MEAN_ANOMALY": 151.0916, "EPHEMERIS_TYPE": 0, "CLASSIFICATION_TYPE": "U", "NORAD_CAT_ID": 31634, "ELEMENT_SET_NO": 999, "REV_AT_EPOCH": 56261, "BSTAR": 0.00049202152, "MEAN_MOTION_DOT": 6.35e-06, "MEAN_MOTION_DDOT": 0}, "tle": {"line1": "1 31634U 99025CAQ 25327.90978471  .00000635  00000+0  49202-3 0  9999", "line2": "2 31634  99.3690  14.1287 0091373 208.5228 151.0916 13.94646713562615"}}, "geometry": {"type": "Point", "coordinates": [26.77730596994231, -23.606283981308895]}}, {"type": "Feature", "properties": {"norad_id": 31639, "name": "FENGYUN 1C DEB", "group": "fengyun-1c-debris", "lat": -27.225293423981775, "lon": 98.3991362941142, "alt_km": 852.8472800388263, "timestamp": "2025-12-02T07:10:09.398798+00:00", "meta": {"OBJECT_NAME": "FENGYUN 1C DEB", "OBJECT_ID": "1999-025CAV", "EPOCH": "2025-11-30T08:06:41.226624", "MEAN_MOTION": 13.85157464, "ECCENTRICITY": 0.01610819, "INCLINATION": 98.7412, "RA_OF_ASC_NODE": 281.1108, "ARG_OF_PERICENTER": 178.8374, "MEAN_ANOMALY": 335.5568, "EPHEMERIS_TYPE": 0, "CLASSIFICATION_TYPE": "U", "NORAD_CAT_ID": 31639, "ELEMENT_SET_NO": 999, "REV_AT_EPOCH": 93516, "BSTAR": 0.00014166692, "MEAN_MOTION_DOT": 1.38e-06, "MEAN_MOTION_DDOT": 0}, "tle": {"line1": "1 31639U 99025CAV 25334.33797716  .00000138  00000+0  14167-3 0  9990", "line2": "2 31639  98.7412 281.1108 0161081 178.8374 335.5568 13.85157464935164"}}, "geometry": {"type": "Point", "coordinates": [98.3991362941142, -27.225293423981775]}}, {"type": "Feature", "properties": {"norad_id": 31642, "name": "FENGYUN 1C DEB", "group": "fengyun-1c-debris", "lat": 19.083987867012716, "lon": 55.709214471862865, "alt_km": 782.2625553967036, "timestamp": "2025-12-02T07:10:09.398808+00:00", "meta": {"OBJECT_NAME": "FENGYUN 1C DEB", "OBJECT_ID": "1999-025CAY", "EPOCH": "2025-12-01T04:16:27.687936", "MEAN_MOTION": 14.33360137, "ECCENTRICITY": 0.01190005, "INCLINATION": 98.5053, "RA_OF_ASC_NODE": 57.5757, "ARG_OF_PERICENTER": 290.9838, "MEAN_ANOMALY": 67.8648, "EPHEMERIS_TYPE": 0, "CLASSIFICATION_TYPE": "U", "NORAD_CAT_ID": 31642, "ELEMENT_SET_NO": 999, "REV_AT_EPOCH": 96853, "BSTAR": 0.00035983381, "MEAN_MOTION_DOT": 1.027e-05, "MEAN_MOTION_DDOT": 0}, "tle": {"line1": "1 31642U 99025CAY 25335.17809824  .00001027  00000+0  35983-3 0  9998", "line2": "2 31642  98.5053  57.5757 0119000 290.9838  67.8648 14.33360137968535"}}, "geometry": {"type": "Point", "coordinates": [55.709214471862865, 19.083987867012716]}}, {"type": "Feature", "properties": {"norad_id": 31644, "name": "FENGYUN 1C DEB", "group": "fengyun-1c-debris", "lat": 72.9821705182042, "lon": 75.42772968987524, "alt_km": 699.880255405471, "timestamp": "2025-12-02T07:10:09.398818+00:00", "meta": {"OBJECT_NAME": "FENGYUN 1C DEB", "OBJECT_ID": "1999-025CBA", "EPOCH": "2025-11-21T12:42:57.254976", "MEAN_MOTION": 14.67516409, "ECCENTRICITY": 0.01542321, "INCLINATION": 98.6708, "RA_OF_ASC_NODE": 214.1231, "ARG_OF_PERICENTER": 249.7824, "MEAN_ANOMALY": 233.9489, "EPHEMERIS_TYPE": 0, "CLASSIFICATION_TYPE": "U", "NORAD_CAT_ID": 31644, "ELEMENT_SET_NO": 999, "REV_AT_EPOCH": 70733, "BSTAR": 0.0012165012, "MEAN_MOTION_DOT": 8.195e-05, "MEAN_MOTION_DDOT": 0}, "tle": {"line1": "1 31644U 99025CBA 25325.52982934  .00008195  00000+0  12165-2 0  9991", "line2": "2 31644  98.6708 214.1231 0154232 249.7824 233.9489 14.67516409707336"}}, "geometry": {"type": "Point", "coordinates": [75.42772968987524, 72.9821705182042]}}, {"type": "Feature", "properties": {"norad_id": 31646, "name": "FENGYUN 1C DEB", "group": "fengyun-1c-debris", "lat": 43.642333601036924, "lon": -172.01610897565016, "alt_km": 849.1687003327506, "timestamp": "2025-12-02T07:10:09.398828+00:00", "meta": {"OBJECT_NAME": "FENGYUN 1C DEB", "OBJECT_ID": "1999-025CBC", "EPOCH": "2025-11-26T07:52:55.511328", "MEAN_MOTION": 14.14089846, "ECCENTRICITY": 0.00324277, "INCLINATION": 98.6918, "RA_OF_ASC_NODE": 353.7887, "ARG_OF_PERICENTER": 261.5394, "MEAN_ANOMALY": 98.2104, "EPHEMERIS_TYPE": 0, "CLASSIFICATION_TYPE": "U", "NORAD_CAT_ID": 31646, "ELEMENT_SET_NO": 999, "REV_AT_EPOCH": 62959, "BSTAR": 0.00056384742, "MEAN_MOTION_DOT": 1.035e-05, "MEAN_MOTION_DDOT": 0}, "tle": {"line1": "1 31646U 99025CBC 25330.32842027  .00001035  00000+0  56385-3 0  9994", "line2": "2 31646  98.6918 353.7887 0032427 261.5394  98.2104 14.14089846629592"}}, "geometry": {"type": "Point", "coordinates": [-172.01610897565016, 43.642333601036924]}}, {"type": "Feature", "properties": {"norad_id": 31655, "name": "FENGYUN 1C DEB", "group": "fengyun-1c-debris", "lat": 33.71313406307737, "lon": -83.61781503832272, "alt_km": 1156.0562676470154, "timestamp": "2025-12-02T07:10:09.398838+00:00", "meta": {"OBJECT_NAME": "FENGYUN 1C DEB", "OBJECT_ID": "1999-025CBM", "EPOCH": "2025-12-01T15:46:15.153312", "MEAN_MOTION": 13.63769655, "ECCENTRICITY": 0.02884083, "INCLINATION": 99.285, "RA_OF_ASC_NODE": 282.0354, "ARG_OF_PERICENTER": 166.9048, "MEAN_ANOMALY": 321.6084, "EPHEMERIS_TYPE": 0, "CLASSIFICATION_TYPE": "U", "NORAD_CAT_ID": 31655, "ELEMENT_SET_NO": 999, "REV_AT_EPOCH": 59568, "BSTAR": 0.0026985032, "MEAN_MOTION_DOT": 2.795e-05, "MEAN_MOTION_DDOT": 0}, "tle": {"line1": "1 31655U 99025CBM 25335.65711983  .00002795  00000+0  26985-2 0  9997", "line2": "2 31655  99.2850 282.0354 0288408 166.9048 321.6084 13.63769655595681"}}, "geometry": {"type": "Point", "coordinates": [-83.61781503832272, 33.71313406307737]}}, {"type": "Feature", "properties": {"norad_id": 31656, "name": "FENGYUN 1C DEB", "group": "fengyun-1c-debris", "lat": -73.09416205520591, "lon": -3.6063676861180975, "alt_km": 758.4225286562905, "timestamp": "2025-12-02T07:10:09.398848+00:00", "meta": {"OBJECT_NAME": "FENGYUN 1C DEB", "OBJECT_ID": "1999-025CBN", "EPOCH": "2025-11-30T22:27:22.794336", "MEAN_MOTION": 14.46709759, "ECCENTRICITY": 0.00226463, "INCLINATION": 99.1923, "RA_OF_ASC_NODE": 322.7218, "ARG_OF_PERICENTER": 85.2285, "MEAN_ANOMALY": 304.2152, "EPHEMERIS_TYPE": 0, "CLASSIFICATION_TYPE": "U", "NORAD_CAT_ID": 31656, "ELEMENT_SET_NO": 999, "REV_AT_EPOCH": 96285, "BSTAR": 0.0023435698, "MEAN_MOTION_DOT": 8.458e-05, "MEAN_MOTION_DDOT": 0}, "tle": {"line1": "1 31656U 99025CBN 25334.93568049  .00008458  00000+0  23436-2 0  9991", "line2": "2 31656  99.1923 322.7218 0022646  85.2285 304.2152 14.46709759962850"}}, "geometry": {"type": "Point", "coordinates": [-3.6063676861180975, -73.09416205520591]}}, {"type": "Feature", "properties": {"norad_id": 31657, "name": "FENGYUN 1C DEB", "group": "fengyun-1c-debris", "lat": -26.78461908929662, "lon": 51.0249415608488, "alt_km": 974.2042402290945, "timestamp": "2025-12-02T07:10:09.398858+00:00", "meta": {"OBJECT_NAME": "FENGYUN 1C DEB", "OBJECT_ID": "1999-025CBP", "EPOCH": "2025-12-01T11:17:07.338912", "MEAN_MOTION": 13.96872124, "ECCENTRICITY": 0.01446102, "INCLINATION": 102.2169, "RA_OF_ASC_NODE": 236.2066, "ARG_OF_PERICENTER": 81.239, "MEAN_ANOMALY": 280.5108, "EPHEMERIS_TYPE": 0, "CLASSIFICATION_TYPE": "U", "NORAD_CAT_ID": 31657, "ELEMENT_SET_NO": 999, "REV_AT_EPOCH": 62707, "BSTAR": 0.003534468, "MEAN_MOTION_DOT": 5.308e-05, "MEAN_MOTION_DDOT": 0}, "tle": {"line1": "1 31657U 99025CBP 25335.47022383  .00005308  00000+0  35345-2 0  9991", "line2": "2 31657 102.2169 236.2066 0144610  81.2390 280.5108 13.96872124627078"}}, "geometry": {"type": "Point", "coordinates": [51.0249415608488, -26.78461908929662]}}, {"type": "Feature", "properties": {"norad_id": 31658, "name": "FENGYUN 1C DEB", "group": "fengyun-1c-debris", "lat": 78.6156990256763, "lon": 141.14032358960318, "alt_km": 888.4178236973803, "timestamp": "2025-12-02T07:10:09.398870+00:00", "meta": {"OBJECT_NAME": "FENGYUN 1C DEB", "OBJECT_ID": "1999-025CBQ", "EPOCH": "2025-11-30T13:35:01.131648", "MEAN_MOTION": 13.98632883, "ECCENTRICITY": 0.0215722, "INCLINATION": 98.1534, "RA_OF_ASC_NODE": 184.9954, "ARG_OF_PERICENTER": 356.7033, "MEAN_ANOMALY": 3.2699, "EPHEMERIS_TYPE": 0, "CLASSIFICATION_TYPE": "U", "NORAD_CAT_ID": 31658, "ELEMENT_SET_NO": 999, "REV_AT_EPOCH": 69646, "BSTAR": 0.0024889, "MEAN_MOTION_DOT": 4.324e-05, "MEAN_MOTION_DDOT": 0}, "tle": {"line1": "1 31658U 99025CBQ 25334.56598532  .00004324  00000+0  24889-2 0  9993", "line2": "2 31658  98.1534 184.9954 0215722 356.7033   3.2699 13.98632883696462"}}, "geometry": {"type": "Point", "coordinates": [141.14032358960318, 78.6156990256763]}}]}